[{"OBJECT_NAME":"OBJECT AL","OBJECT_ID":"2023-085AL","EPOCH":"2026-03-09T22:26:04.970400","MEAN_MOTION":15.31857284,"ECCENTRICITY":0.000802,"INCLINATION":97.4839,"RA_OF_ASC_NODE":180.0127,"ARG_OF_PERICENTER":78.7242,"MEAN_ANOMALY":281.49,"EPHEMERIS_TYPE":0,"CLASSIFICATION_TYPE":"U","NORAD_CAT_ID":57038,"ELEMENT_SET_NO":999,"REV_AT_EPOCH":15154,"BSTAR":0.0006591637,"MEAN_MOTION_DOT":0.00020246,"MEAN_MOTION_DDOT":0},{"OBJECT_NAME":"STARLINK-34852","OBJECT_ID":"2025-237X","EPOCH":"2026-03-09T22:02:16.348128","MEAN_MOTION":15.30224487,"ECCENTRICITY":0.00016283,"INCLINATION":53.1615,"RA_OF_ASC_NODE":38.6972,"ARG_OF_PERICENTER":92.2015,"MEAN_ANOMALY":267.9172,"EPHEMERIS_TYPE":0,"CLASSIFICATION_TYPE":"U","NORAD_CAT_ID":66135,"ELEMENT_SET_NO":999,"REV_AT_EPOCH":2260,"BSTAR":0.0012758117,"MEAN_MOTION_DOT":0.00037647,"MEAN_MOTION_DDOT":0}]
